C/2025 Q1 (ATLAS),e,66.1632,326.9426,280.2326,1309,0.0000208,0.99228339,0.0000,07/11.8977/2024,2000,g  3.8,4.0
# From MPEC 2026-EC7
C/2025 Q3 (ATLAS),e,90.1855,233.1435,218.4571,787.9549,0.0000446,0.99731896,0.0000,02/25.6442/2026,2000,g 12.2,4.0
# From MPEC 2026-E44
C/2025 R1 (ATLAS),e,110.0268,60.3979,77.5532,166.7215,0.0004578,0.98815260,0.0000,11/23.3411/2025,2000,g 14.0,4.0
# From MPEC 2026-E44
C/2025 R2 (SWAN),e,4.4729,335.3211,308.3685,87.13141,0.0012118,0.99421365,0.0000,09/12.8402/2025,2000,g 12.4,4.0
# From MPEC 2026-FC3
C/2025 R3 (PANSTARRS),h,04/19.8953/2026,124.7315,38.6943,162.2247,1.000360,0.498630,2000,12.2,4.0
# From MPEC 2026-E44
A/2025 S2,e,96.6423,34.4735,31.5905,63.21198,0.0019611,0.97332387,0.0000,01/02.4163/2026,2000,g 16.0,2.0
# From MPC191591
A/2025 S3,e,103.5633,36.7303,71.1279,216.3008,0.0003098,0.98962349,0.0000,06/25.0933/2026,2000,g 15.0,2.0
# From MPEC 2026-E44
C/2025 T1 (ATLAS),e,123.4332,140.4948,114.1408,13149,0.0000007,0.99991567,0.0000,12/02.3760/2025,2000,g 14.7,4.0
# From MPEC 2026-FC3
P/2025 U1 (Hogan),e,23.8295,234.9332,264.0303,5.899805,0.0687777,0.29387990,0.0802,03/27.0/2026,2000,g 11.7,4.0
# From MPEC 2026-EC7
P/2025 UX109 (Ye),e,3.1814,197.9821,276.1241,3.804645,0.1328106,0.32454485,29.8520,03/27.0/2026,2000,g 13.7,4.0
# From MPC191592
C/2025 V1 (Borisov),h,11/16.5443/2025,112.7086,91.8740,47.5697,1.007746,0.462683,2000,16.3,4.0
# From MPEC 2026-FC3
C/2025 V2 (Rankin),h,03/22.9799/2027,37.2934,138.0831,102.7375,1.000560,1.951598,2000,9.0,4.0
# From MPC191592
C/2025 W1 (Sankovich),e,79.8003,95.8912,250.6400,8838,0.0000012,0.99952814,0.0000,02/17.7395/2025,2000,g  9.7,4.0
# From MPC191592
C/2025 W2 (ATLAS),e,94.7104,90.8449,41.0367,26.93509,0.0070506,0.94604421,0.7697,03/27.0/2026,2000,g 17.9,4.0
# From MPEC 2026-E44
P/2025 W3 (Kresken),e,9.7420,60.0325,311.4394,2.547342,0.2424226,0.18079189,90.8591,03/27.0/2026,2000,g 17.2,4.0
# From MPEC 2026-E44
P/2025 W4 (PANSTARRS),e,1.2979,237.1103,172.2989,2.579740,0.2378703,0.21142904,41.2667,03/27.0/2026,2000,g 17.5,4.0
# From MPEC 2026-EC7
C/2025 X1 (PANSTARRS),e,36.9558,95.6353,85.6689,33.78832,0.0050183,0.86184217,358.6994,03/27.0/2026,2000,g 10.2,4.0
# From MPEC 2026-FC3
C/2025 Y1 (ATLAS),e,14.5569,166.5517,124.3003,8827,0.0000012,0.99970527,0.0000,10/13.9747/2027,2000,g  6.3,4.0
# From MPEC 2026-FC3
P/2025 Y2 (PANSTARRS),e,16.5870,177.4771,344.6817,4.017324,0.1224049,0.24157951,13.4709,03/27.0/2026,2000,g 13.3,4.0
# From MPEC 2026-BC8
C/2025 Y3 (PANSTARRS),h,01/13.7042/2026,89.5483,272.9662,219.3842,1.000613,2.227323,2000,17.0,4.0
# From MPEC 2026-FC3
C/2026 A1 (MAPS),e,144.4922,7.8835,86.3352,157.3969,0.0004991,0.99996354,0.0000,04/04.6009/2026,2000,g 15.6,4.0
# From MPEC 2026-FC3
C/2026 A2 (Bok),e,82.3064,206.5910,155.9400,788.3648,0.0000445,0.99754208,0.0000,12/22.3624/2026,2000,g 10.7,4.0
# From MPEC 2026-FC3
P/2026 B1 (PANSTARRS),e,4.0213,104.6617,72.7036,3.664559,0.1404985,0.31445474,340.2374,03/27.0/2026,2000,g 15.7,4.0
# From MPEC 2026-FC3
C/2026 B2 (Sun-Gao),e,59.5769,234.6393,47.3094,667.7417,0.0000571,0.99807651,0.0000,01/10.1294/2026,2000,g  9.7,4.0
# From MPEC 2026-FC3
C/2026 B3 (PANSTARRS),e,100.8331,346.2550,205.2108,1142,0.0000256,0.99490563,0.0000,05/05.1471/2027,2000,g  7.7,4.0
# From MPEC 2026-FC3
C/2026 C1 (Tsuchinshan),e,99.6003,3.6182,310.7200,11194,0.0000008,0.99989705,0.0000,11/07.0178/2028,2000,g  4.4,4.0
# From MPEC 2026-FC3
P/2026 C2 (PANSTARRS),e,7.4003,190.5632,10.9861,3.552165,0.1472192,0.31422726,342.8047,03/27.0/2026,2000,g 14.9,4.0
# From MPC191592
1P/Halley,e,162.1696,59.4303,112.3292,17.85812,0.0130602,0.96800135,191.2769,03/27.0/2026,2000,g  5.5,3.2
# From MPC191592
2P/Encke,e,11.3476,334.0188,187.2816,2.217921,0.2983904,0.84727044,264.4460,03/27.0/2026,2000,g 11.5,6.0
# From AJ 76, 1135
3D-A/Biela,e,7.2155,276.6831,192.1458,3.551916,0.1472347,0.76711313,70.6519,03/27.0/2026,2000,g 11.0,6.0
# From AJ 76, 1135
3D-B/Biela,e,7.8797,276.2016,192.2650,3.540929,0.1479205,0.76785404,40.2234,03/27.0/2026,2000,g 11.0,6.0
# From MPC191593
4P/Faye,e,7.9995,192.8943,207.1613,3.830788,0.1314534,0.57596062,218.2533,03/27.0/2026,2000,g  8.0,6.0
# From MPC191593
6P/d'Arrest,e,19.5045,138.9544,178.0327,3.497590,0.1506783,0.61226473,249.0902,03/27.0/2026,2000,g  7.5,16.0
# From MPEC 2026-E43
7P/Pons-Winnecke,e,21.9465,92.7659,174.1774,3.341437,0.1613631,0.66031426,276.6719,03/27.0/2026,2000,g 10.0,6.0
# From MPC191593
8P/Tuttle,e,54.9879,270.1911,207.4731,5.706418,0.0723034,0.82074358,120.8119,03/27.0/2026,2000,g  8.0,8.0
# From MPC191593
9P/Tempel,e,10.5143,66.9923,184.5254,3.301654,0.1642883,0.46677615,247.3327,03/27.0/2026,2000,g  5.5,10.0
# From MPEC 2026-FC3
10P/Tempel,e,12.0272,117.7977,195.4721,3.064758,0.1837003,0.53741624,336.4641,03/27.0/2026,2000,g  5.0,10.0
# From MPC191593
11P/Tempel-Swift-LINEAR,e,14.4307,238.8556,168.0654,3.282573,0.1657229,0.57733428,322.2267,03/27.0/2026,2000,g 17.0,4.0
# From MPC191593
12P/Pons-Brooks,e,74.1728,255.8619,199.0259,17.26509,0.0137389,0.95473080,9.6834,03/27.0/2026,2000,g  5.0,6.0
# From MPC191593
13P/Olbers,e,44.6599,85.8443,64.4290,16.93933,0.0141371,0.93061753,8.9748,03/27.0/2026,2000,g  5.0,6.0
# From MPC191594
14P/Wolf,e,27.9181,202.0114,159.2081,4.255572,0.1122709,0.35649358,340.2345,03/27.0/2026,2000,g  5.5,12.0
# From MPC191594
15P/Finlay,e,6.7849,13.7327,347.8657,3.511743,0.1497683,0.71585658,257.4257,03/27.0/2026,2000,g 12.0,4.0
# From MPC191594
16P/Brooks,e,3.0099,138.8112,245.3750,3.662887,0.1405947,0.48528689,253.6777,03/27.0/2026,2000,g  7.5,10.0
# From MPC191594
17P/Holmes,e,19.0042,326.5976,24.5879,3.642659,0.1417674,0.42607354,264.1945,03/27.0/2026,2000,g 10.0,6.0
# From QJ 19, 80
18D/Perrine-Mrkos,e,17.663,158.451,238.175,3.87895,0.129013,0.5894055,74.177,03/27.0/2026,2000,g 16.0,4.0
# From MPC191594
19P/Borrelly,e,29.3086,74.2156,352.0178,3.608736,0.1437710,0.63758815,217.5992,03/27.0/2026,2000,g  4.5,10.0
# From MPC191594
21P/Giacobini-Zinner,e,32.0592,195.2941,172.9395,3.490710,0.1511240,0.71110742,55.4084,03/27.0/2026,2000,g  9.0,6.0
# From MPC191594
22P/Kopff,e,5.1449,119.8652,164.3039,3.346656,0.1609857,0.58562695,228.4562,03/27.0/2026,2000,g  3.0,10.4
# From MPEC 2026-FC3
24P/Schaumasse,e,11.5021,78.2696,58.4830,4.057362,0.1205975,0.70819790,9.3656,03/27.0/2026,2000,g  6.5,14.0
# From MPC191594
26P/Grigg-Skjellerup,e,22.4463,211.5263,2.1101,3.013885,0.1883710,0.64082431,154.9603,03/27.0/2026,2000,g 12.0,16.0
# From MPEC 2026-E44
28P/Neujmin,e,14.2873,346.4258,347.4180,6.977775,0.0534723,0.77240577,98.5978,03/27.0/2026,2000,g  8.5,6.0
# From MPEC 2026-FC3
29P/Schwassmann-Wachmann,e,9.3550,312.4006,51.6903,6.058013,0.0661011,0.04293541,167.1433,03/27.0/2026,2000,g  4.0,4.0
# From MPC191595
30P/Reinmuth,e,8.0537,117.2289,9.5512,3.736792,0.1364444,0.51445097,80.0505,03/27.0/2026,2000,g  9.5,6.0
# From MPC191595
31P/Schwassmann-Wachmann,e,4.5497,114.1123,18.0286,4.229208,0.1133224,0.19368414,278.0446,03/27.0/2026,2000,g  5.0,8.0
# From MPC191595
32P/ComasSola,e,9.9176,54.5327,54.7481,4.556252,0.1013427,0.55530263,71.4712,03/27.0/2026,2000,g  6.5,8.0
# From MPC191595
33P/Daniel,e,22.2936,66.2806,20.2681,4.091473,0.1190925,0.45179047,59.6820,03/27.0/2026,2000,g 10.0,12.0
# From MPC191595
36P/Whipple,e,9.9438,181.8109,201.1961,4.142356,0.1169050,0.26777186,248.4266,03/27.0/2026,2000,g  8.5,6.0
# From MPC191595
37P/Forbes,e,8.9478,314.5424,330.0795,3.461640,0.1530316,0.53240988,81.3931,03/27.0/2026,2000,g 10.5,4.8
# From MPC191596
39P/Oterma,e,1.7304,289.0950,118.5933,6.968386,0.0535804,0.16455677,47.8064,03/27.0/2026,2000,g  7.0,6.0
# From MPEC 2026-FC3
40P/Vaisala,e,11.6404,128.9000,52.0634,4.944201,0.0896520,0.63112095,12.1005,03/27.0/2026,2000,g  5.5,12.0
# From MPC191596
41P/Tuttle-Giacobini-Kresak,e,9.2165,140.9770,62.2033,3.087487,0.1816755,0.65988764,234.5055,03/27.0/2026,2000,g 10.0,16.0
# From MPC191596
42P/Neujmin,e,3.9885,150.1548,147.1201,4.879675,0.0914361,0.58406305,6.4987,03/27.0/2026,2000,g 13.0,6.0
# From MPEC 2026-FC3
43P/Wolf-Harrington,e,9.3300,243.9727,223.7724,4.327778,0.1094729,0.43559561,25.6717,03/27.0/2026,2000,g  8.0,6.0
# From MPC191596
44P/Reinmuth,e,5.8956,286.4180,57.9607,3.687885,0.1391676,0.42670511,199.7868,03/27.0/2026,2000,g  8.3,6.0
# From MPC191596
45P/Honda-Mrkos-Pajdusakova,e,4.3244,87.6647,327.9725,3.056909,0.1844082,0.81745963,263.6023,03/27.0/2026,2000,g 13.5,8.0
# From MPEC 2026-E43
47P/Ashbrook-Jackson,e,13.0399,356.8816,357.9167,4.115773,0.1180394,0.31787635,17.7064,03/27.0/2026,2000,g  1.0,11.2
# From MPEC 2026-E44
48P/Johnson,e,12.2018,110.0634,216.8278,3.500248,0.1505067,0.42647394,58.5894,03/27.0/2026,2000,g 10.0,6.0
# From MPEC 2026-FC3
49P/Arend-Rigaux,e,19.0597,118.7899,332.9340,3.569183,0.1461675,0.59890762,51.2184,03/27.0/2026,2000,g 11.3,4.4
# From MPC191597
50P/Arend,e,19.1003,355.1444,49.3007,4.085573,0.1193506,0.52950750,81.5792,03/27.0/2026,2000,g  9.5,6.0
# From MPC191597
51P/Harrington,e,5.4263,83.6579,269.2098,3.705387,0.1381827,0.54265689,176.0277,03/27.0/2026,2000,g 10.0,8.0
# From NK 3014
51P-A/Harrington,e,5.4261,269.2252,83.6222,3.706614,0.1381141,0.54285291,175.5835,03/27.0/2026,2000,g 10.0,8.0
# From MPC191597
52P/Harrington-Abell,e,10.2415,336.7394,139.6513,3.861627,0.1298819,0.54122370,211.9722,03/27.0/2026,2000,g 13.5,6.0
# From MPEC 2026-E44
53P/VanBiesbroeck,e,6.6061,148.8480,134.3320,5.440554,0.0776675,0.55031083,282.0214,03/27.0/2026,2000,g  7.7,4.8
# From MPC191597
54P/deVico-Swift-NEAT,e,6.0831,358.2804,2.4861,3.794690,0.1333336,0.42946585,75.7088,03/27.0/2026,2000,g 10.0,6.0
# From MPC191597
56P/Slaughter-Burnham,e,8.1553,345.8668,44.2394,5.062667,0.0865237,0.50811973,305.2583,03/27.0/2026,2000,g  8.5,6.0
# From MPC191597
57P/duToit-Neujmin-Delporte,e,2.8561,188.6835,115.1270,3.439312,0.1545242,0.50218226,250.6280,03/27.0/2026,2000,g 12.5,6.0
# From MPC191597
58P/Jackson-Neujmin,e,13.0828,159.0240,200.5759,4.092107,0.1190649,0.66132536,253.7663,03/27.0/2026,2000,g 15.5,6.0
# From MPC191598
